STARLINK-37182          
1 68348U 26059AD  26099.71567456  .00274984  00000+0  13480-2 0  9999
2 68348  53.1581 207.1893 0001255  75.0304 285.0858 15.80951455  2883
STARLINK-37183          
1 68349U 26059AE  26099.77589462  .00235113  00000+0  11593-2 0  9991
2 68349  53.1584 206.8527 0001526  71.1781 288.9407 15.80934954  2892
CENTISPACE-1 OBJECT A   
1 68350U 26060A   26098.98767744 -.00069717  00000+0 -10486-1 0  9994
2 68350  54.9808 318.0279 0012456 325.7672  34.2523 14.74433526  2569
CENTISPACE-1 OBJECT B   
1 68351U 26060B   26099.73248037  .00000870  00000+0  16036-3 0  9990
2 68351  54.9819 314.9864 0013152 334.8341  25.2016 14.74624251  2671
CENTISPACE-1 OBJECT C   
1 68352U 26060C   26095.73164918  .00000086  00000+0  43653-4 0  9997
2 68352  54.9852 331.2905 0012134 338.2549  21.7934 14.74891649  2086
CENTISPACE-1 OBJECT D   
1 68353U 26060D   26097.56162774  .00000022  00000+0  34268-4 0  9991
2 68353  54.9764 323.8206 0011525 352.0844   7.9971 14.74769510  2353
CENTISPACE-1 OBJECT E   
1 68354U 26060E   26096.40862123  .00000057  00000+0  39396-4 0  9994
2 68354  54.9777 328.5107 0012841 340.1409  19.9089 14.74860184  2180
CENTISPACE-1 OBJECT F   
1 68355U 26060F   26097.49295117  .00000020  00000+0  34132-4 0  9991
2 68355  54.9785 324.0963 0015935 341.0819  18.9586 14.74770540  2348
CENTISPACE-1 OBJECT G   
1 68356U 26060G   26099.86329912 -.00000013  00000+0  28972-4 0  9994
2 68356  54.9858 314.4157 0014036 348.5100  11.5577 14.75091664  2695
CENTISPACE-1 OBJECT H   
1 68357U 26060H   26097.01645263  .00000018  00000+0  33661-4 0  9995
2 68357  54.9827 326.0135 0014040 341.3737  18.6747 14.75028204  2270
CENTISPACE-1 OBJECT J   
1 68358U 26060J   26099.86285050 -.00000018  00000+0  28457-4 0  9993
2 68358  54.9800 314.3934 0013767 350.4219   9.6516 14.74747099  2699
CENTISPACE-1 OBJECT K   
1 68359U 26060K   26094.64400183  .00000084  00000+0  43131-4 0  9999
2 68359  54.9800 335.6935 0014769 336.0624  23.9687 14.75283234  1920
RASSVET-3 1             
1 68360U 26061A   26099.84902777  .00089000  15196-5  36103-3 0  9998
2 68360  82.2951  89.2984 0022767  13.7638 346.4247 15.85688309  2728
RASSVET-3 2             
1 68361U 26061B   26099.85083899  .00101676  24837-5  33359-3 0  9991
2 68361  82.2975  89.3040 0024639  10.7909 349.3885 15.89894104  2723
RASSVET-3 3             
1 68362U 26061C   26099.85067469  .00108088  29577-5  35455-3 0  9996
2 68362  82.2974  89.3034 0024474  10.5665 349.6115 15.89909541  2721
RASSVET-3 4             
1 68363U 26061D   26099.85051468  .00063510  27985-6  20885-3 0  9992
2 68363  82.2975  89.3034 0024639  10.5222 349.6560 15.89807879  2720
