[{"OBJECT_NAME":"STARLINK-37182","OBJECT_ID":"2026-059AD","EPOCH":"2026-04-09T17:10:34.281984","MEAN_MOTION":15.80951455,"ECCENTRICITY":0.0001255,"INCLINATION":53.1581,"RA_OF_ASC_NODE":207.1893,"ARG_OF_PERICENTER":75.0304,"MEAN_ANOMALY":285.0858,"EPHEMERIS_TYPE":0,"CLASSIFICATION_TYPE":"U","NORAD_CAT_ID":68348,"ELEMENT_SET_NO":999,"REV_AT_EPOCH":288,"BSTAR":0.001348,"MEAN_MOTION_DOT":0.00274984,"MEAN_MOTION_DDOT":0},{"OBJECT_NAME":"STARLINK-37183","OBJECT_ID":"2026-059AE","EPOCH":"2026-04-09T18:37:17.295168","MEAN_MOTION":15.80934954,"ECCENTRICITY":0.0001526,"INCLINATION":53.1584,"RA_OF_ASC_NODE":206.8527,"ARG_OF_PERICENTER":71.1781,"MEAN_ANOMALY":288.9407,"EPHEMERIS_TYPE":0,"CLASSIFICATION_TYPE":"U","NORAD_CAT_ID":68349,"ELEMENT_SET_NO":999,"REV_AT_EPOCH":289,"BSTAR":0.0011593,"MEAN_MOTION_DOT":0.00235113,"MEAN_MOTION_DDOT":0},{"OBJECT_NAME":"CENTISPACE-1 OBJECT A","OBJECT_ID":"2026-060A","EPOCH":"2026-04-08T23:42:15.330816","MEAN_MOTION":14.74433526,"ECCENTRICITY":0.00124561,"INCLINATION":54.9808,"RA_OF_ASC_NODE":318.0279,"ARG_OF_PERICENTER":325.7672,"MEAN_ANOMALY":34.2523,"EPHEMERIS_TYPE":0,"CLASSIFICATION_TYPE":"U","NORAD_CAT_ID":68350,"ELEMENT_SET_NO":999,"REV_AT_EPOCH":256,"BSTAR":-0.010486018,"MEAN_MOTION_DOT":-0.00069717,"MEAN_MOTION_DDOT":0},{"OBJECT_NAME":"CENTISPACE-1 OBJECT B","OBJECT_ID":"2026-060B","EPOCH":"2026-04-09T17:34:46.303968","MEAN_MOTION":14.74624251,"ECCENTRICITY":0.0013152,"INCLINATION":54.9819,"RA_OF_ASC_NODE":314.9864,"ARG_OF_PERICENTER":334.8341,"MEAN_ANOMALY":25.2016,"EPHEMERIS_TYPE":0,"CLASSIFICATION_TYPE":"U","NORAD_CAT_ID":68351,"ELEMENT_SET_NO":999,"REV_AT_EPOCH":267,"BSTAR":0.00016036,"MEAN_MOTION_DOT":8.7e-6,"MEAN_MOTION_DDOT":0},{"OBJECT_NAME":"CENTISPACE-1 OBJECT C","OBJECT_ID":"2026-060C","EPOCH":"2026-04-05T17:33:34.489152","MEAN_MOTION":14.74891649,"ECCENTRICITY":0.00121348,"INCLINATION":54.9852,"RA_OF_ASC_NODE":331.2905,"ARG_OF_PERICENTER":338.2549,"MEAN_ANOMALY":21.7934,"EPHEMERIS_TYPE":0,"CLASSIFICATION_TYPE":"U","NORAD_CAT_ID":68352,"ELEMENT_SET_NO":999,"REV_AT_EPOCH":208,"BSTAR":4.3653263e-5,"MEAN_MOTION_DOT":8.6e-7,"MEAN_MOTION_DDOT":0},{"OBJECT_NAME":"CENTISPACE-1 OBJECT D","OBJECT_ID":"2026-060D","EPOCH":"2026-04-07T13:28:44.636736","MEAN_MOTION":14.7476951,"ECCENTRICITY":0.0011525,"INCLINATION":54.9764,"RA_OF_ASC_NODE":323.8206,"ARG_OF_PERICENTER":352.0844,"MEAN_ANOMALY":7.9971,"EPHEMERIS_TYPE":0,"CLASSIFICATION_TYPE":"U","NORAD_CAT_ID":68353,"ELEMENT_SET_NO":999,"REV_AT_EPOCH":235,"BSTAR":3.4268e-5,"MEAN_MOTION_DOT":2.2e-7,"MEAN_MOTION_DDOT":0},{"OBJECT_NAME":"CENTISPACE-1 OBJECT E","OBJECT_ID":"2026-060E","EPOCH":"2026-04-06T09:48:24.874272","MEAN_MOTION":14.74860184,"ECCENTRICITY":0.00128411,"INCLINATION":54.9777,"RA_OF_ASC_NODE":328.5107,"ARG_OF_PERICENTER":340.1409,"MEAN_ANOMALY":19.9089,"EPHEMERIS_TYPE":0,"CLASSIFICATION_TYPE":"U","NORAD_CAT_ID":68354,"ELEMENT_SET_NO":999,"REV_AT_EPOCH":218,"BSTAR":3.9395794e-5,"MEAN_MOTION_DOT":5.7e-7,"MEAN_MOTION_DDOT":0},{"OBJECT_NAME":"CENTISPACE-1 OBJECT F","OBJECT_ID":"2026-060F","EPOCH":"2026-04-07T11:49:50.981088","MEAN_MOTION":14.7477054,"ECCENTRICITY":0.0015935,"INCLINATION":54.9785,"RA_OF_ASC_NODE":324.0963,"ARG_OF_PERICENTER":341.0819,"MEAN_ANOMALY":18.9586,"EPHEMERIS_TYPE":0,"CLASSIFICATION_TYPE":"U","NORAD_CAT_ID":68355,"ELEMENT_SET_NO":999,"REV_AT_EPOCH":234,"BSTAR":3.4132e-5,"MEAN_MOTION_DOT":2.0e-7,"MEAN_MOTION_DDOT":0},{"OBJECT_NAME":"CENTISPACE-1 OBJECT G","OBJECT_ID":"2026-060G","EPOCH":"2026-04-09T20:43:09.043968","MEAN_MOTION":14.75091664,"ECCENTRICITY":0.0014036,"INCLINATION":54.9858,"RA_OF_ASC_NODE":314.4157,"ARG_OF_PERICENTER":348.51,"MEAN_ANOMALY":11.5577,"EPHEMERIS_TYPE":0,"CLASSIFICATION_TYPE":"U","NORAD_CAT_ID":68356,"ELEMENT_SET_NO":999,"REV_AT_EPOCH":269,"BSTAR":2.8972e-5,"MEAN_MOTION_DOT":-1.3e-7,"MEAN_MOTION_DDOT":0},{"OBJECT_NAME":"CENTISPACE-1 OBJECT H","OBJECT_ID":"2026-060H","EPOCH":"2026-04-07T00:23:41.507232","MEAN_MOTION":14.75028204,"ECCENTRICITY":0.00140406,"INCLINATION":54.9827,"RA_OF_ASC_NODE":326.0135,"ARG_OF_PERICENTER":341.3737,"MEAN_ANOMALY":18.6747,"EPHEMERIS_TYPE":0,"CLASSIFICATION_TYPE":"U","NORAD_CAT_ID":68357,"ELEMENT_SET_NO":999,"REV_AT_EPOCH":227,"BSTAR":3.3661334e-5,"MEAN_MOTION_DOT":1.8e-7,"MEAN_MOTION_DDOT":0},{"OBJECT_NAME":"CENTISPACE-1 OBJECT J","OBJECT_ID":"2026-060J","EPOCH":"2026-04-09T20:42:30.283200","MEAN_MOTION":14.74747099,"ECCENTRICITY":0.0013767,"INCLINATION":54.98,"RA_OF_ASC_NODE":314.3934,"ARG_OF_PERICENTER":350.4219,"MEAN_ANOMALY":9.6516,"EPHEMERIS_TYPE":0,"CLASSIFICATION_TYPE":"U","NORAD_CAT_ID":68358,"ELEMENT_SET_NO":999,"REV_AT_EPOCH":269,"BSTAR":2.8457e-5,"MEAN_MOTION_DOT":-1.8e-7,"MEAN_MOTION_DDOT":0},{"OBJECT_NAME":"CENTISPACE-1 OBJECT K","OBJECT_ID":"2026-060K","EPOCH":"2026-04-04T15:27:21.758112","MEAN_MOTION":14.75283234,"ECCENTRICITY":0.0014769,"INCLINATION":54.98,"RA_OF_ASC_NODE":335.6935,"ARG_OF_PERICENTER":336.0624,"MEAN_ANOMALY":23.9687,"EPHEMERIS_TYPE":0,"CLASSIFICATION_TYPE":"U","NORAD_CAT_ID":68359,"ELEMENT_SET_NO":999,"REV_AT_EPOCH":192,"BSTAR":4.3130657e-5,"MEAN_MOTION_DOT":8.4e-7,"MEAN_MOTION_DDOT":0},{"OBJECT_NAME":"RASSVET-3 1","OBJECT_ID":"2026-061A","EPOCH":"2026-04-09T20:22:35.999328","MEAN_MOTION":15.85688309,"ECCENTRICITY":0.0022767,"INCLINATION":82.2951,"RA_OF_ASC_NODE":89.2984,"ARG_OF_PERICENTER":13.7638,"MEAN_ANOMALY":346.4247,"EPHEMERIS_TYPE":0,"CLASSIFICATION_TYPE":"U","NORAD_CAT_ID":68360,"ELEMENT_SET_NO":999,"REV_AT_EPOCH":272,"BSTAR":0.00036103,"MEAN_MOTION_DOT":0.00089,"MEAN_MOTION_DDOT":1.5196e-6},{"OBJECT_NAME":"RASSVET-3 2","OBJECT_ID":"2026-061B","EPOCH":"2026-04-09T20:25:12.488736","MEAN_MOTION":15.89894104,"ECCENTRICITY":0.0024639,"INCLINATION":82.2975,"RA_OF_ASC_NODE":89.304,"ARG_OF_PERICENTER":10.7909,"MEAN_ANOMALY":349.3885,"EPHEMERIS_TYPE":0,"CLASSIFICATION_TYPE":"U","NORAD_CAT_ID":68361,"ELEMENT_SET_NO":999,"REV_AT_EPOCH":272,"BSTAR":0.00033359,"MEAN_MOTION_DOT":0.00101676,"MEAN_MOTION_DDOT":2.4837e-6},{"OBJECT_NAME":"RASSVET-3 3","OBJECT_ID":"2026-061C","EPOCH":"2026-04-09T20:24:58.293216","MEAN_MOTION":15.89909541,"ECCENTRICITY":0.0024474,"INCLINATION":82.2974,"RA_OF_ASC_NODE":89.3034,"ARG_OF_PERICENTER":10.5665,"MEAN_ANOMALY":349.6115,"EPHEMERIS_TYPE":0,"CLASSIFICATION_TYPE":"U","NORAD_CAT_ID":68362,"ELEMENT_SET_NO":999,"REV_AT_EPOCH":272,"BSTAR":0.00035455,"MEAN_MOTION_DOT":0.00108088,"MEAN_MOTION_DDOT":2.9577e-6},{"OBJECT_NAME":"RASSVET-3 4","OBJECT_ID":"2026-061D","EPOCH":"2026-04-09T20:24:44.468352","MEAN_MOTION":15.89807879,"ECCENTRICITY":0.0024639,"INCLINATION":82.2975,"RA_OF_ASC_NODE":89.3034,"ARG_OF_PERICENTER":10.5222,"MEAN_ANOMALY":349.656,"EPHEMERIS_TYPE":0,"CLASSIFICATION_TYPE":"U","NORAD_CAT_ID":68363,"ELEMENT_SET_NO":999,"REV_AT_EPOCH":272,"BSTAR":0.00020885,"MEAN_MOTION_DOT":0.0006351,"MEAN_MOTION_DDOT":2.7985e-7}]
